{"type":"FeatureCollection","features":[{"type":"Feature","geometry":{"type":"Point","coordinates":[33.7906,35.011]},"properties":{"name":"Dhekelia Cantonment","rank":3}},{"type":"Feature","geometry":{"type":"Point","coordinates":[33.0842,34.9133]},"properties":{"name":"Cyprus","rank":5}},{"type":"Feature","geometry":{"type":"Point","coordinates":[79.3581,22.6869]},"properties":{"name":"India","rank":2}},{"type":"Feature","geometry":{"type":"Point","coordinates":[34.8479,30.9111]},"properties":{"name":"Israel","rank":4}},{"type":"Feature","geometry":{"type":"Point","coordinates":[35.2913,32.0474]},"properties":{"name":"Palestine","rank":5}},{"type":"Feature","geometry":{"type":"Point","coordinates":[35.9929,34.1334]},"properties":{"name":"Lebanon","rank":5}},{"type":"Feature","geometry":{"type":"Point","coordinates":[39.0886,8.0328]},"properties":{"name":"Ethiopia","rank":2}},{"type":"Feature","geometry":{"type":"Point","coordinates":[30.3902,7.2305]},"properties":{"name":"South Sudan","rank":3}},{"type":"Feature","geometry":{"type":"Point","coordinates":[45.1924,3.5689]},"properties":{"name":"Somalia","rank":6}},{"type":"Feature","geometry":{"type":"Point","coordinates":[37.9076,0.549]},"properties":{"name":"Kenya","rank":2}},{"type":"Feature","geometry":{"type":"Point","coordinates":[38.2778,35.0066]},"properties":{"name":"Syria","rank":3}},{"type":"Feature","geometry":{"type":"Point","coordinates":[46.7316,9.4439]},"properties":{"name":"Somaliland","rank":5}},{"type":"Feature","geometry":{"type":"Point","coordinates":[2.5523,46.6961]},"properties":{"name":"France","rank":2}},{"type":"Feature","geometry":{"type":"Point","coordinates":[-7.1873,31.6507]},"properties":{"name":"Morocco","rank":3}},{"type":"Feature","geometry":{"type":"Point","coordinates":[-12.6303,23.9676]},"properties":{"name":"Western Sahara","rank":7}},{"type":"Feature","geometry":{"type":"Point","coordinates":[15.9005,0.1423]},"properties":{"name":"Republic of the Congo","rank":4}},{"type":"Feature","geometry":{"type":"Point","coordinates":[32.1409,49.7247]},"properties":{"name":"Ukraine","rank":3}},{"type":"Feature","geometry":{"type":"Point","coordinates":[28.4177,53.8219]},"properties":{"name":"Belarus","rank":4}},{"type":"Feature","geometry":{"type":"Point","coordinates":[57.3366,22.1204]},"properties":{"name":"Oman","rank":4}},{"type":"Feature","geometry":{"type":"Point","coordinates":[64.0054,41.6936]},"properties":{"name":"Uzbekistan","rank":3}},{"type":"Feature","geometry":{"type":"Point","coordinates":[68.6855,49.0541]},"properties":{"name":"Kazakhstan","rank":3}},{"type":"Feature","geometry":{"type":"Point","coordinates":[72.5873,38.1998]},"properties":{"name":"Tajikistan","rank":4}},{"type":"Feature","geometry":{"type":"Point","coordinates":[24.0899,55.1037]},"properties":{"name":"Lithuania","rank":5}},{"type":"Feature","geometry":{"type":"Point","coordinates":[15.3776,49.8824]},"properties":{"name":"Czech Republic","rank":5}},{"type":"Feature","geometry":{"type":"Point","coordinates":[9.6783,50.9617]},"properties":{"name":"Germany","rank":2}},{"type":"Feature","geometry":{"type":"Point","coordinates":[25.4587,57.0669]},"properties":{"name":"Latvia","rank":5}},{"type":"Feature","geometry":{"type":"Point","coordinates":[6.0776,49.7337]},"properties":{"name":"Luxembourg","rank":6}},{"type":"Feature","geometry":{"type":"Point","coordinates":[54.5473,23.4663]},"properties":{"name":"United Arab Emirates","rank":4}},{"type":"Feature","geometry":{"type":"Point","coordinates":[4.8004,50.7854]},"properties":{"name":"Belgium","rank":2}},{"type":"Feature","geometry":{"type":"Point","coordinates":[43.7357,41.8701]},"properties":{"name":"Georgia","rank":5}},{"type":"Feature","geometry":{"type":"Point","coordinates":[21.5558,41.5582]},"properties":{"name":"North Macedonia","rank":6}},{"type":"Feature","geometry":{"type":"Point","coordinates":[20.1138,40.6549]},"properties":{"name":"Albania","rank":6}},{"type":"Feature","geometry":{"type":"Point","coordinates":[47.211,40.4024]},"properties":{"name":"Azerbaijan","rank":5}},{"type":"Feature","geometry":{"type":"Point","coordinates":[20.8607,42.5936]},"properties":{"name":"Kosovo","rank":6}},{"type":"Feature","geometry":{"type":"Point","coordinates":[34.5083,39.3454]},"properties":{"name":"Turkey","rank":2}},{"type":"Feature","geometry":{"type":"Point","coordinates":[-3.4647,40.091]},"properties":{"name":"Spain","rank":2}},{"type":"Feature","geometry":{"type":"Point","coordinates":[74.5326,41.6685]},"properties":{"name":"Kyrgyzstan","rank":4}},{"type":"Feature","geometry":{"type":"Point","coordinates":[44.8006,40.4591]},"properties":{"name":"Armenia","rank":6}},{"type":"Feature","geometry":{"type":"Point","coordinates":[9.0182,55.967]},"properties":{"name":"Denmark","rank":4}},{"type":"Feature","geometry":{"type":"Point","coordinates":[18.011,26.6389]},"properties":{"name":"Libya","rank":3}},{"type":"Feature","geometry":{"type":"Point","coordinates":[9.0079,33.6873]},"properties":{"name":"Tunisia","rank":3}},{"type":"Feature","geometry":{"type":"Point","coordinates":[24.9726,45.7332]},"properties":{"name":"Romania","rank":3}},{"type":"Feature","geometry":{"type":"Point","coordinates":[19.4479,47.0868]},"properties":{"name":"Hungary","rank":5}},{"type":"Feature","geometry":{"type":"Point","coordinates":[19.0499,48.734]},"properties":{"name":"Slovakia","rank":6}},{"type":"Feature","geometry":{"type":"Point","coordinates":[19.4905,51.9903]},"properties":{"name":"Poland","rank":3}},{"type":"Feature","geometry":{"type":"Point","coordinates":[-7.7986,53.0787]},"properties":{"name":"Ireland","rank":3}},{"type":"Feature","geometry":{"type":"Point","coordinates":[-2.1163,54.4027]},"properties":{"name":"United Kingdom","rank":2}},{"type":"Feature","geometry":{"type":"Point","coordinates":[21.7257,39.4928]},"properties":{"name":"Greece","rank":3}},{"type":"Feature","geometry":{"type":"Point","coordinates":[-11.7637,8.6174]},"properties":{"name":"Sierra Leone","rank":4}},{"type":"Feature","geometry":{"type":"Point","coordinates":[-10.0164,10.6185]},"properties":{"name":"Guinea","rank":3}},{"type":"Feature","geometry":{"type":"Point","coordinates":[-9.4604,6.4472]},"properties":{"name":"Liberia","rank":4}},{"type":"Feature","geometry":{"type":"Point","coordinates":[20.9069,6.9897]},"properties":{"name":"Central African Republic","rank":4}},{"type":"Feature","geometry":{"type":"Point","coordinates":[29.2607,16.3307]},"properties":{"name":"Sudan","rank":3}},{"type":"Feature","geometry":{"type":"Point","coordinates":[42.4988,11.9763]},"properties":{"name":"Djibouti","rank":5}},{"type":"Feature","geometry":{"type":"Point","coordinates":[38.2856,15.7874]},"properties":{"name":"Eritrea","rank":4}},{"type":"Feature","geometry":{"type":"Point","coordinates":[14.1305,47.5189]},"properties":{"name":"Austria","rank":4}},{"type":"Feature","geometry":{"type":"Point","coordinates":[43.2618,33.094]},"properties":{"name":"Iraq","rank":3}},{"type":"Feature","geometry":{"type":"Point","coordinates":[11.0769,44.7325]},"properties":{"name":"Italy","rank":2}},{"type":"Feature","geometry":{"type":"Point","coordinates":[7.464,46.7191]},"properties":{"name":"Switzerland","rank":4}},{"type":"Feature","geometry":{"type":"Point","coordinates":[54.9315,32.1662]},"properties":{"name":"Iran","rank":2}},{"type":"Feature","geometry":{"type":"Point","coordinates":[5.6114,52.4222]},"properties":{"name":"Netherlands","rank":5}},{"type":"Feature","geometry":{"type":"Point","coordinates":[9.5594,47.1114]},"properties":{"name":"Liechtenstein","rank":6}},{"type":"Feature","geometry":{"type":"Point","coordinates":[-5.5686,7.4914]},"properties":{"name":"Ivory Coast","rank":3}},{"type":"Feature","geometry":{"type":"Point","coordinates":[20.788,44.1899]},"properties":{"name":"Serbia","rank":5}},{"type":"Feature","geometry":{"type":"Point","coordinates":[-2.0385,18.6927]},"properties":{"name":"Mali","rank":3}},{"type":"Feature","geometry":{"type":"Point","coordinates":[-14.7786,15.1381]},"properties":{"name":"Senegal","rank":3}},{"type":"Feature","geometry":{"type":"Point","coordinates":[7.5032,9.4398]},"properties":{"name":"Nigeria","rank":2}},{"type":"Feature","geometry":{"type":"Point","coordinates":[2.352,10.3248]},"properties":{"name":"Benin","rank":5}},{"type":"Feature","geometry":{"type":"Point","coordinates":[16.3724,45.8058]},"properties":{"name":"Croatia","rank":6}},{"type":"Feature","geometry":{"type":"Point","coordinates":[14.9153,46.0608]},"properties":{"name":"Slovenia","rank":6}},{"type":"Feature","geometry":{"type":"Point","coordinates":[51.1435,25.2374]},"properties":{"name":"Qatar","rank":5}},{"type":"Feature","geometry":{"type":"Point","coordinates":[44.6996,23.8069]},"properties":{"name":"Saudi Arabia","rank":2}},{"type":"Feature","geometry":{"type":"Point","coordinates":[68.5456,29.3284]},"properties":{"name":"Pakistan","rank":2}},{"type":"Feature","geometry":{"type":"Point","coordinates":[25.1571,42.5088]},"properties":{"name":"Bulgaria","rank":4}},{"type":"Feature","geometry":{"type":"Point","coordinates":[12.4412,43.9339]},"properties":{"name":"San Marino","rank":6}},{"type":"Feature","geometry":{"type":"Point","coordinates":[18.645,15.143]},"properties":{"name":"Chad","rank":3}},{"type":"Feature","geometry":{"type":"Point","coordinates":[47.314,29.4136]},"properties":{"name":"Kuwait","rank":6}},{"type":"Feature","geometry":{"type":"Point","coordinates":[7.3983,43.7397]},"properties":{"name":"Monaco","rank":6}},{"type":"Feature","geometry":{"type":"Point","coordinates":[2.8082,27.3974]},"properties":{"name":"Algeria","rank":3}},{"type":"Feature","geometry":{"type":"Point","coordinates":[1.5394,42.5476]},"properties":{"name":"Andorra","rank":6}},{"type":"Feature","geometry":{"type":"Point","coordinates":[66.4966,34.1643]},"properties":{"name":"Afghanistan","rank":3}},{"type":"Feature","geometry":{"type":"Point","coordinates":[19.1437,42.8031]},"properties":{"name":"Montenegro","rank":6}},{"type":"Feature","geometry":{"type":"Point","coordinates":[18.0684,44.0911]},"properties":{"name":"Bosnia and Herzegovina","rank":5}},{"type":"Feature","geometry":{"type":"Point","coordinates":[32.9486,1.9726]},"properties":{"name":"Uganda","rank":3}},{"type":"Feature","geometry":{"type":"Point","coordinates":[-8.2718,39.6067]},"properties":{"name":"Portugal","rank":2}},{"type":"Feature","geometry":{"type":"Point","coordinates":[28.4879,47.435]},"properties":{"name":"Moldova","rank":6}},{"type":"Feature","geometry":{"type":"Point","coordinates":[58.6766,39.8552]},"properties":{"name":"Turkmenistan","rank":4}},{"type":"Feature","geometry":{"type":"Point","coordinates":[36.376,30.805]},"properties":{"name":"Jordan","rank":4}},{"type":"Feature","geometry":{"type":"Point","coordinates":[12.4735,4.585]},"properties":{"name":"Cameroon","rank":3}},{"type":"Feature","geometry":{"type":"Point","coordinates":[9.5044,17.4462]},"properties":{"name":"Niger","rank":3}},{"type":"Feature","geometry":{"type":"Point","coordinates":[-1.3639,12.673]},"properties":{"name":"Burkina Faso","rank":3}},{"type":"Feature","geometry":{"type":"Point","coordinates":[1.0581,8.8072]},"properties":{"name":"Togo","rank":6}},{"type":"Feature","geometry":{"type":"Point","coordinates":[-1.0369,7.7176]},"properties":{"name":"Ghana","rank":3}},{"type":"Feature","geometry":{"type":"Point","coordinates":[-14.5241,12.1637]},"properties":{"name":"Guinea-Bissau","rank":6}},{"type":"Feature","geometry":{"type":"Point","coordinates":[-5.3467,36.1294]},"properties":{"name":"Gibraltar","rank":5}},{"type":"Feature","geometry":{"type":"Point","coordinates":[29.4458,26.1862]},"properties":{"name":"Egypt","rank":2}},{"type":"Feature","geometry":{"type":"Point","coordinates":[45.8744,15.3282]},"properties":{"name":"Yemen","rank":3}},{"type":"Feature","geometry":{"type":"Point","coordinates":[-9.7403,19.5871]},"properties":{"name":"Mauritania","rank":3}},{"type":"Feature","geometry":{"type":"Point","coordinates":[8.9902,2.333]},"properties":{"name":"Equatorial Guinea","rank":4}},{"type":"Feature","geometry":{"type":"Point","coordinates":[-14.9983,13.6417]},"properties":{"name":"The Gambia","rank":6}},{"type":"Feature","geometry":{"type":"Point","coordinates":[12.4534,41.9033]},"properties":{"name":"Vatican City","rank":6}},{"type":"Feature","geometry":{"type":"Point","coordinates":[33.6924,35.2161]},"properties":{"name":"Turkish Republic of Northern Cyprus","rank":6}},{"type":"Feature","geometry":{"type":"Point","coordinates":[33.2881,35.1407]},"properties":{"name":"United Nations Buffer Zone in Cyprus","rank":9}},{"type":"Feature","geometry":{"type":"Point","coordinates":[77.1296,35.3406]},"properties":{"name":"Siachen Glacier","rank":5}},{"type":"Feature","geometry":{"type":"Point","coordinates":[63.3839,45.9783]},"properties":{"name":"Baikonur","rank":5}},{"type":"Feature","geometry":{"type":"Point","coordinates":[32.979,34.6008]},"properties":{"name":"Akrotiri Sovereign Base Area","rank":3}},{"type":"Feature","geometry":{"type":"Point","coordinates":[33.6734,21.8604]},"properties":{"name":"Bir Tawil","rank":8}},{"type":"Feature","geometry":{"type":"Point","coordinates":[7.021,0.9709]},"properties":{"name":"São Tomé and Príncipe","rank":6}},{"type":"Feature","geometry":{"type":"Point","coordinates":[14.433,35.8929]},"properties":{"name":"Malta","rank":5}},{"type":"Feature","geometry":{"type":"Point","coordinates":[-2.0901,49.2208]},"properties":{"name":"Jersey","rank":6}},{"type":"Feature","geometry":{"type":"Point","coordinates":[-2.5617,49.4635]},"properties":{"name":"Guernsey","rank":6}},{"type":"Feature","geometry":{"type":"Point","coordinates":[-4.5301,54.2208]},"properties":{"name":"Isle of Man","rank":6}},{"type":"Feature","geometry":{"type":"Point","coordinates":[73.5076,4.1744]},"properties":{"name":"Maldives","rank":5}},{"type":"Feature","geometry":{"type":"Point","coordinates":[50.5548,26.056]},"properties":{"name":"Bahrain","rank":4}}]}