{"type":"FeatureCollection","features":[{"type":"Feature","geometry":{"type":"Point","coordinates":[14.9988,23.9725]},"properties":{"name":"Jabal bin Ghunaymah","kind":"range/mtn","rank":6}},{"type":"Feature","geometry":{"type":"Point","coordinates":[30.0145,0.5536]},"properties":{"name":"Ruwenzori Range","kind":"range/mtn","rank":6}},{"type":"Feature","geometry":{"type":"Point","coordinates":[-4.5644,33.4644]},"properties":{"name":"Moyen Atlas","kind":"range/mtn","rank":6}},{"type":"Feature","geometry":{"type":"Point","coordinates":[-11.1007,8.8052]},"properties":{"name":"Loma Mts.","kind":"range/mtn","rank":6}},{"type":"Feature","geometry":{"type":"Point","coordinates":[13.6647,7.5904]},"properties":{"name":"Mbang Mts.","kind":"range/mtn","rank":6}},{"type":"Feature","geometry":{"type":"Point","coordinates":[15.8568,29.0878]},"properties":{"name":"Jabal as Sawdä’","kind":"desert","rank":6}},{"type":"Feature","geometry":{"type":"Point","coordinates":[17.304,27.2401]},"properties":{"name":"Al Harüj al Aswad","kind":"plateau","rank":6}},{"type":"Feature","geometry":{"type":"Point","coordinates":[22.6945,16.8354]},"properties":{"name":"Ennedi Plat.","kind":"plateau","rank":6}},{"type":"Feature","geometry":{"type":"Point","coordinates":[8.9557,9.7622]},"properties":{"name":"Jos Plateau","kind":"plateau","rank":6}},{"type":"Feature","geometry":{"type":"Point","coordinates":[22.5104,8.9353]},"properties":{"name":"Chaîne des Mongos","kind":"range/mtn","rank":5}},{"type":"Feature","geometry":{"type":"Point","coordinates":[47.1961,10.7665]},"properties":{"name":"Ogo Mts.","kind":"range/mtn","rank":5}},{"type":"Feature","geometry":{"type":"Point","coordinates":[-8.8487,8.4988]},"properties":{"name":"Guinea Highlands","kind":"range/mtn","rank":5}},{"type":"Feature","geometry":{"type":"Point","coordinates":[24.9391,14.2137]},"properties":{"name":"Marrah Mts.","kind":"range/mtn","rank":5}},{"type":"Feature","geometry":{"type":"Point","coordinates":[41.4938,9.0769]},"properties":{"name":"Ahmar Mts.","kind":"range/mtn","rank":5}},{"type":"Feature","geometry":{"type":"Point","coordinates":[20.6107,32.1701]},"properties":{"name":"Al Jabal al Akhdar","kind":"range/mtn","rank":5}},{"type":"Feature","geometry":{"type":"Point","coordinates":[-4.2286,35.0062]},"properties":{"name":"Er Rif","kind":"range/mtn","rank":5}},{"type":"Feature","geometry":{"type":"Point","coordinates":[0.0221,35.3263]},"properties":{"name":"Atlas Tellien","kind":"range/mtn","rank":5}},{"type":"Feature","geometry":{"type":"Point","coordinates":[67.0162,29.4773]},"properties":{"name":"Central Bruhui Range","kind":"range/mtn","rank":5}},{"type":"Feature","geometry":{"type":"Point","coordinates":[68.6085,43.8218]},"properties":{"name":"Karatau Range","kind":"range/mtn","rank":5}},{"type":"Feature","geometry":{"type":"Point","coordinates":[73.2723,25.833]},"properties":{"name":"Arvalli Ra.","kind":"range/mtn","rank":5}},{"type":"Feature","geometry":{"type":"Point","coordinates":[69.8965,31.527]},"properties":{"name":"Sulaiman Ra.","kind":"range/mtn","rank":5}},{"type":"Feature","geometry":{"type":"Point","coordinates":[64.2496,27.1937]},"properties":{"name":"Central Makran","kind":"range/mtn","rank":5}},{"type":"Feature","geometry":{"type":"Point","coordinates":[66.9225,26.8537]},"properties":{"name":"Kirthar Ra.","kind":"range/mtn","rank":5}},{"type":"Feature","geometry":{"type":"Point","coordinates":[35.8379,33.8856]},"properties":{"name":"Lebanon Mts.","kind":"range/mtn","rank":5}},{"type":"Feature","geometry":{"type":"Point","coordinates":[57.9873,37.794]},"properties":{"name":"Kopet Dag Mts .","kind":"range/mtn","rank":5}},{"type":"Feature","geometry":{"type":"Point","coordinates":[64.1138,34.8327]},"properties":{"name":"Paropamisus Ra.","kind":"range/mtn","rank":5}},{"type":"Feature","geometry":{"type":"Point","coordinates":[56.4025,24.2316]},"properties":{"name":"Al Hajar Mts.","kind":"range/mtn","rank":5}},{"type":"Feature","geometry":{"type":"Point","coordinates":[46.4708,22.7025]},"properties":{"name":"Tuwayq Mts.","kind":"range/mtn","rank":5}},{"type":"Feature","geometry":{"type":"Point","coordinates":[33.0725,36.9571]},"properties":{"name":"Taurus Mts.","kind":"range/mtn","rank":5}},{"type":"Feature","geometry":{"type":"Point","coordinates":[13.3608,49.0381]},"properties":{"name":"Böhmerwald","kind":"range/mtn","rank":5}},{"type":"Feature","geometry":{"type":"Point","coordinates":[24.1318,45.2488]},"properties":{"name":"Transylvanian Alps","kind":"range/mtn","rank":5}},{"type":"Feature","geometry":{"type":"Point","coordinates":[20.3546,49.4408]},"properties":{"name":"Tatra Mts.","kind":"range/mtn","rank":5}},{"type":"Feature","geometry":{"type":"Point","coordinates":[20.7125,39.9337]},"properties":{"name":"Pindus Mts.","kind":"range/mtn","rank":5}},{"type":"Feature","geometry":{"type":"Point","coordinates":[16.6169,39.0802]},"properties":{"name":"Calabria","kind":"range/mtn","rank":5}},{"type":"Feature","geometry":{"type":"Point","coordinates":[10.5304,51.7808]},"properties":{"name":"Harz","kind":"range/mtn","rank":5}},{"type":"Feature","geometry":{"type":"Point","coordinates":[7.1692,48.8004]},"properties":{"name":"Vosges","kind":"range/mtn","rank":5}},{"type":"Feature","geometry":{"type":"Point","coordinates":[16.4003,50.642]},"properties":{"name":"Sudetes Mts.","kind":"range/mtn","rank":5}},{"type":"Feature","geometry":{"type":"Point","coordinates":[12.5917,50.4]},"properties":{"name":"Erzgebirge","kind":"range/mtn","rank":5}},{"type":"Feature","geometry":{"type":"Point","coordinates":[5.1466,50.0016]},"properties":{"name":"Ardennes","kind":"range/mtn","rank":5}},{"type":"Feature","geometry":{"type":"Point","coordinates":[6.2786,46.8571]},"properties":{"name":"Jura","kind":"range/mtn","rank":5}},{"type":"Feature","geometry":{"type":"Point","coordinates":[-4.3175,56.5293]},"properties":{"name":"Grampian Mts.","kind":"range/mtn","rank":5}},{"type":"Feature","geometry":{"type":"Point","coordinates":[-3.56,52.3873]},"properties":{"name":"Cambrian Mts.","kind":"range/mtn","rank":5}},{"type":"Feature","geometry":{"type":"Point","coordinates":[-11.7862,17.7107]},"properties":{"name":"Tagant","kind":"plateau","rank":5}},{"type":"Feature","geometry":{"type":"Point","coordinates":[-12.5027,11.041]},"properties":{"name":"Fouta Djallon","kind":"plateau","rank":5}},{"type":"Feature","geometry":{"type":"Point","coordinates":[2.6208,28.7705]},"properties":{"name":"Plat. du Tademaït","kind":"plateau","rank":5}},{"type":"Feature","geometry":{"type":"Point","coordinates":[26.4179,24.1908]},"properties":{"name":"Jilf al Kabir Plateau","kind":"plateau","rank":5}},{"type":"Feature","geometry":{"type":"Point","coordinates":[25.9587,18.4584]},"properties":{"name":"Jabal al Abyad Plateau","kind":"plateau","rank":5}},{"type":"Feature","geometry":{"type":"Point","coordinates":[24.7729,30.9145]},"properties":{"name":"Libyan Plateau","kind":"plateau","rank":5}},{"type":"Feature","geometry":{"type":"Point","coordinates":[79.9038,24.1519]},"properties":{"name":"Chota Nägpur Plateau","kind":"plateau","rank":5}},{"type":"Feature","geometry":{"type":"Point","coordinates":[43.2158,45.322]},"properties":{"name":"Stavropol’ Plateau","kind":"plateau","rank":5}},{"type":"Feature","geometry":{"type":"Point","coordinates":[45.5391,51.8957]},"properties":{"name":"Volga Upland","kind":"plateau","rank":5}},{"type":"Feature","geometry":{"type":"Point","coordinates":[31.1961,48.748]},"properties":{"name":"Dnieper Upland","kind":"plateau","rank":5}},{"type":"Feature","geometry":{"type":"Point","coordinates":[37.0284,47.7266]},"properties":{"name":"Azov Upland","kind":"plateau","rank":5}},{"type":"Feature","geometry":{"type":"Point","coordinates":[3.187,44.8536]},"properties":{"name":"Massif Central","kind":"plateau","rank":5}},{"type":"Feature","geometry":{"type":"Point","coordinates":[58.7506,21.8306]},"properties":{"name":"Wahiba Sands","kind":"desert","rank":5}},{"type":"Feature","geometry":{"type":"Point","coordinates":[41.7825,12.7446]},"properties":{"name":"Danakil","kind":"desert","rank":5}},{"type":"Feature","geometry":{"type":"Point","coordinates":[34.8915,30.4169]},"properties":{"name":"Negev Desert","kind":"desert","rank":5}},{"type":"Feature","geometry":{"type":"Point","coordinates":[37.5554,2.7122]},"properties":{"name":"Chalbi Desert","kind":"desert","rank":5}},{"type":"Feature","geometry":{"type":"Point","coordinates":[33.0494,26.3729]},"properties":{"name":"Eastern Desert","kind":"desert","rank":5}},{"type":"Feature","geometry":{"type":"Point","coordinates":[-13.9587,18.0414]},"properties":{"name":"Trarza","kind":"desert","rank":5}},{"type":"Feature","geometry":{"type":"Point","coordinates":[-12.6191,20.6476]},"properties":{"name":"Akchâr","kind":"desert","rank":5}},{"type":"Feature","geometry":{"type":"Point","coordinates":[11.5284,29.736]},"properties":{"name":"Hamada de Tinrhert","kind":"desert","rank":5}},{"type":"Feature","geometry":{"type":"Point","coordinates":[-3.1757,27.9148]},"properties":{"name":"‘Erg Iguidi","kind":"desert","rank":5}},{"type":"Feature","geometry":{"type":"Point","coordinates":[65.1246,30.9213]},"properties":{"name":"Rigestan","kind":"desert","rank":5}},{"type":"Feature","geometry":{"type":"Point","coordinates":[62.8684,31.2755]},"properties":{"name":"Margo Desert","kind":"desert","rank":5}},{"type":"Feature","geometry":{"type":"Point","coordinates":[55.0185,34.5257]},"properties":{"name":"Kavir Desert","kind":"desert","rank":5}},{"type":"Feature","geometry":{"type":"Point","coordinates":[42.6428,28.7596]},"properties":{"name":"An Nafud Desert","kind":"desert","rank":5}},{"type":"Feature","geometry":{"type":"Point","coordinates":[10.3129,32.9638]},"properties":{"name":"Jabal Nafüsah","kind":"plain","rank":5}},{"type":"Feature","geometry":{"type":"Point","coordinates":[42.1936,17.9467]},"properties":{"name":"Tihāmah","kind":"plain","rank":5}},{"type":"Feature","geometry":{"type":"Point","coordinates":[48.5458,27.3359]},"properties":{"name":"Hasa Plain","kind":"plain","rank":5}},{"type":"Feature","geometry":{"type":"Point","coordinates":[19.9195,46.7262]},"properties":{"name":"Alföld","kind":"plain","rank":5}},{"type":"Feature","geometry":{"type":"Point","coordinates":[23.6528,56.7193]},"properties":{"name":"Baltic Plains","kind":"plain","rank":5}},{"type":"Feature","geometry":{"type":"Point","coordinates":[-9.2782,16.4252]},"properties":{"name":"Aoukâr","kind":"depression","rank":5}},{"type":"Feature","geometry":{"type":"Point","coordinates":[16.5814,16.5046]},"properties":{"name":"Bodélé Depression","kind":"depression","rank":5}},{"type":"Feature","geometry":{"type":"Point","coordinates":[76.3612,33.2451]},"properties":{"name":"Vale of Kashmir","kind":"valley","rank":5}},{"type":"Feature","geometry":{"type":"Point","coordinates":[31.0673,30.7723]},"properties":{"name":"Nile Delta","kind":"delta","rank":4}},{"type":"Feature","geometry":{"type":"Point","coordinates":[67.8139,24.3824]},"properties":{"name":"Indus Delta","kind":"delta","rank":4}},{"type":"Feature","geometry":{"type":"Point","coordinates":[-7.5521,30.0799]},"properties":{"name":"Anti Atlas","kind":"range/mtn","rank":4}},{"type":"Feature","geometry":{"type":"Point","coordinates":[77.1305,9.5485]},"properties":{"name":"Southern Ghats","kind":"range/mtn","rank":4}},{"type":"Feature","geometry":{"type":"Point","coordinates":[77.6271,22.075]},"properties":{"name":"Satpura Range","kind":"range/mtn","rank":4}},{"type":"Feature","geometry":{"type":"Point","coordinates":[73.9511,33.6582]},"properties":{"name":"Salt Ra.","kind":"range/mtn","rank":4}},{"type":"Feature","geometry":{"type":"Point","coordinates":[78.9076,45.1455]},"properties":{"name":"Alataw Mts.","kind":"range/mtn","rank":4}},{"type":"Feature","geometry":{"type":"Point","coordinates":[45.2519,40.6576]},"properties":{"name":"Lesser Caucasus","kind":"range/mtn","rank":4}},{"type":"Feature","geometry":{"type":"Point","coordinates":[36.3828,41.0267]},"properties":{"name":"PONTIC MOUNTAINS","kind":"range/mtn","rank":4}},{"type":"Feature","geometry":{"type":"Point","coordinates":[52.7532,31.7759]},"properties":{"name":"KUH RUD MOUNTAINS","kind":"range/mtn","rank":4}},{"type":"Feature","geometry":{"type":"Point","coordinates":[25.0079,43.216]},"properties":{"name":"Balkan Mts.","kind":"range/mtn","rank":4}},{"type":"Feature","geometry":{"type":"Point","coordinates":[18.3175,44.0187]},"properties":{"name":"Dinaric Alps","kind":"range/mtn","rank":4}},{"type":"Feature","geometry":{"type":"Point","coordinates":[-4.6665,43.0532]},"properties":{"name":"Cord. Cantábrica","kind":"range/mtn","rank":4}},{"type":"Feature","geometry":{"type":"Point","coordinates":[-3.3106,37.3283]},"properties":{"name":"S. Nevada","kind":"range/mtn","rank":4}},{"type":"Feature","geometry":{"type":"Point","coordinates":[-5.5881,38.0974]},"properties":{"name":"Sierra Morena","kind":"range/mtn","rank":4}},{"type":"Feature","geometry":{"type":"Point","coordinates":[49.1965,15.2586]},"properties":{"name":"Hadhramaut","kind":"range/mtn","rank":4}},{"type":"Feature","geometry":{"type":"Point","coordinates":[13.1606,24.7596]},"properties":{"name":"Idhän Murzuq","kind":"desert","rank":4}},{"type":"Feature","geometry":{"type":"Point","coordinates":[-5.8877,28.9851]},"properties":{"name":"Hamada du Drâa","kind":"desert","rank":4}},{"type":"Feature","geometry":{"type":"Point","coordinates":[12.8598,19.3835]},"properties":{"name":"Ténéré","kind":"desert","rank":4}},{"type":"Feature","geometry":{"type":"Point","coordinates":[6.3204,21.3564]},"properties":{"name":"Tassili oua-n-Ahaggar","kind":"desert","rank":4}},{"type":"Feature","geometry":{"type":"Point","coordinates":[8.814,25.1147]},"properties":{"name":"Tassili-n-Ajjer","kind":"desert","rank":4}},{"type":"Feature","geometry":{"type":"Point","coordinates":[22.5124,28.186]},"properties":{"name":"Sarïr Kalanshiyu ar Ramli al Kabi","kind":"desert","rank":4}},{"type":"Feature","geometry":{"type":"Point","coordinates":[7.9215,30.7127]},"properties":{"name":"Grand Erg Oriental","kind":"desert","rank":4}},{"type":"Feature","geometry":{"type":"Point","coordinates":[0.7868,30.7921]},"properties":{"name":"Grand Erg Occidental","kind":"desert","rank":4}},{"type":"Feature","geometry":{"type":"Point","coordinates":[-2.3593,25.3748]},"properties":{"name":"‘Erg Chech","kind":"desert","rank":4}},{"type":"Feature","geometry":{"type":"Point","coordinates":[-6.8277,21.4132]},"properties":{"name":"El Djouf","kind":"desert","rank":4}},{"type":"Feature","geometry":{"type":"Point","coordinates":[79.1426,38.8171]},"properties":{"name":"TAKLIMAKAN DESERT","kind":"desert","rank":4}},{"type":"Feature","geometry":{"type":"Point","coordinates":[57.8009,31.7091]},"properties":{"name":"LUT DESERT","kind":"desert","rank":4}},{"type":"Feature","geometry":{"type":"Point","coordinates":[11.753,6.6952]},"properties":{"name":"Adamawa Plateau","kind":"plateau","rank":4}},{"type":"Feature","geometry":{"type":"Point","coordinates":[73.7198,48.4681]},"properties":{"name":"KAZAKH UPLAND","kind":"plateau","rank":4}},{"type":"Feature","geometry":{"type":"Point","coordinates":[55.2572,43.9246]},"properties":{"name":"Ustyurt Plateau","kind":"plateau","rank":4}},{"type":"Feature","geometry":{"type":"Point","coordinates":[1.6803,33.7675]},"properties":{"name":"ATLAS SAHARIEN","kind":"range/mtn","rank":3}},{"type":"Feature","geometry":{"type":"Point","coordinates":[-6.017,31.8472]},"properties":{"name":"HAUT ATLAS","kind":"range/mtn","rank":3}},{"type":"Feature","geometry":{"type":"Point","coordinates":[10.7107,0.5436]},"properties":{"name":"CRYSTAL MOUNTAINS","kind":"range/mtn","rank":3}},{"type":"Feature","geometry":{"type":"Point","coordinates":[17.6837,21.7766]},"properties":{"name":"TIBESTI MTS.","kind":"range/mtn","rank":3}},{"type":"Feature","geometry":{"type":"Point","coordinates":[5.3686,24.3231]},"properties":{"name":"AHAGGAR MTS.","kind":"range/mtn","rank":3}},{"type":"Feature","geometry":{"type":"Point","coordinates":[8.7613,18.8926]},"properties":{"name":"AÏR MTS.","kind":"range/mtn","rank":3}},{"type":"Feature","geometry":{"type":"Point","coordinates":[30.2533,1.4695]},"properties":{"name":"MITUMBA MTS.","kind":"range/mtn","rank":3}},{"type":"Feature","geometry":{"type":"Point","coordinates":[74.3853,15.8099]},"properties":{"name":"WESTERN GHATS","kind":"range/mtn","rank":3}},{"type":"Feature","geometry":{"type":"Point","coordinates":[79.0739,14.2911]},"properties":{"name":"EASTERN GHATS","kind":"range/mtn","rank":3}},{"type":"Feature","geometry":{"type":"Point","coordinates":[77.1838,23.1982]},"properties":{"name":"Vindhya Range","kind":"range/mtn","rank":3}},{"type":"Feature","geometry":{"type":"Point","coordinates":[79.5218,48.1003]},"properties":{"name":"Tarbagatay Ra.","kind":"range/mtn","rank":3}},{"type":"Feature","geometry":{"type":"Point","coordinates":[37.9385,25.7529]},"properties":{"name":"HEJAZ MTS.","kind":"range/mtn","rank":3}},{"type":"Feature","geometry":{"type":"Point","coordinates":[42.6436,18.9397]},"properties":{"name":"ASIR MTS.","kind":"range/mtn","rank":3}},{"type":"Feature","geometry":{"type":"Point","coordinates":[53.861,36.6086]},"properties":{"name":"ELBURZ MTS.","kind":"range/mtn","rank":3}},{"type":"Feature","geometry":{"type":"Point","coordinates":[24.5149,47.3039]},"properties":{"name":"CARPATHIAN MOUNTAINS","kind":"range/mtn","rank":3}},{"type":"Feature","geometry":{"type":"Point","coordinates":[13.1592,42.5759]},"properties":{"name":"APPENNINI","kind":"range/mtn","rank":3}},{"type":"Feature","geometry":{"type":"Point","coordinates":[0.746,42.7291]},"properties":{"name":"PYRENEES","kind":"range/mtn","rank":3}},{"type":"Feature","geometry":{"type":"Point","coordinates":[6.3507,5.2271]},"properties":{"name":"Niger Delta","kind":"delta","rank":3}},{"type":"Feature","geometry":{"type":"Point","coordinates":[48.2395,46.1859]},"properties":{"name":"Volga Delta","kind":"delta","rank":3}},{"type":"Feature","geometry":{"type":"Point","coordinates":[29.2045,45.0723]},"properties":{"name":"Danube Delta","kind":"delta","rank":3}},{"type":"Feature","geometry":{"type":"Point","coordinates":[38.6797,7.7337]},"properties":{"name":"GREAT RIFT VALLEY","kind":"valley","rank":3}},{"type":"Feature","geometry":{"type":"Point","coordinates":[30.9183,1.1654]},"properties":{"name":"GREAT RIFT VALLEY","kind":"valley","rank":3}},{"type":"Feature","geometry":{"type":"Point","coordinates":[36.8295,52.3595]},"properties":{"name":"CENTRAL RUSSIAN UPLAND","kind":"plateau","rank":3}},{"type":"Feature","geometry":{"type":"Point","coordinates":[28.0222,27.6546]},"properties":{"name":"WESTERN DESERT","kind":"desert","rank":3}},{"type":"Feature","geometry":{"type":"Point","coordinates":[33.7793,20.05]},"properties":{"name":"NUBIAN DESERT","kind":"desert","rank":3}},{"type":"Feature","geometry":{"type":"Point","coordinates":[25.0947,21.1613]},"properties":{"name":"LIBYAN DESERT","kind":"desert","rank":3}},{"type":"Feature","geometry":{"type":"Point","coordinates":[71.6151,27.4604]},"properties":{"name":"THAR DESERT","kind":"desert","rank":3}},{"type":"Feature","geometry":{"type":"Point","coordinates":[40.1987,32.3543]},"properties":{"name":"SYRIAN DESERT","kind":"desert","rank":3}},{"type":"Feature","geometry":{"type":"Point","coordinates":[58.9367,40.8253]},"properties":{"name":"GARAGUM DESERT","kind":"desert","rank":3}},{"type":"Feature","geometry":{"type":"Point","coordinates":[63.9452,43.3031]},"properties":{"name":"QIZILQUM DESERT","kind":"desert","rank":3}},{"type":"Feature","geometry":{"type":"Point","coordinates":[78.3198,38.7397]},"properties":{"name":"TARIM BASIN","kind":"basin","rank":3}},{"type":"Feature","geometry":{"type":"Point","coordinates":[77.5053,56.5441]},"properties":{"name":"WESTERN SIBERIAN PLAIN","kind":"lowland","rank":3}},{"type":"Feature","geometry":{"type":"Point","coordinates":[47.1939,46.6675]},"properties":{"name":"CASPIAN DEPRESSION","kind":"lowland","rank":3}},{"type":"Feature","geometry":{"type":"Point","coordinates":[37.3423,10.8955]},"properties":{"name":"ETHIOPIAN HIGHLANDS","kind":"range/mtn","rank":2}},{"type":"Feature","geometry":{"type":"Point","coordinates":[50.4962,31.4579]},"properties":{"name":"ZAGROS MOUNTAINS","kind":"range/mtn","rank":2}},{"type":"Feature","geometry":{"type":"Point","coordinates":[79.5923,29.4724]},"properties":{"name":"Siwalik Hills","kind":"range/mtn","rank":2}},{"type":"Feature","geometry":{"type":"Point","coordinates":[74.0715,38.2928]},"properties":{"name":"PAMIRS","kind":"range/mtn","rank":2}},{"type":"Feature","geometry":{"type":"Point","coordinates":[71.2014,35.8379]},"properties":{"name":"HINDU KUSH","kind":"range/mtn","rank":2}},{"type":"Feature","geometry":{"type":"Point","coordinates":[77.6317,35.5233]},"properties":{"name":"KARAKORAM RA.","kind":"range/mtn","rank":2}},{"type":"Feature","geometry":{"type":"Point","coordinates":[79.0903,36.2798]},"properties":{"name":"KUNLUN MOUNTAINS","kind":"range/mtn","rank":2}},{"type":"Feature","geometry":{"type":"Point","coordinates":[-3.8852,32.803]},"properties":{"name":"ATLAS MOUNTAINS","kind":"range/mtn","rank":2}},{"type":"Feature","geometry":{"type":"Point","coordinates":[62.7629,42.0609]},"properties":{"name":"TURAN LOWLAND","kind":"plain","rank":2}},{"type":"Feature","geometry":{"type":"Point","coordinates":[18.0522,16.0965]},"properties":{"name":"SAHEL","kind":"plain","rank":2}},{"type":"Feature","geometry":{"type":"Point","coordinates":[39.0399,48.7398]},"properties":{"name":"PONTIC STEPPE","kind":"plain","rank":2}},{"type":"Feature","geometry":{"type":"Point","coordinates":[78.5794,27.817]},"properties":{"name":"GANGES PLAIN","kind":"plain","rank":2}},{"type":"Feature","geometry":{"type":"Point","coordinates":[76.9649,16.2364]},"properties":{"name":"DECCAN PLATEAU","kind":"plateau","rank":2}},{"type":"Feature","geometry":{"type":"Point","coordinates":[71.8706,40.6669]},"properties":{"name":"Fergana Valley","kind":"valley","rank":2}},{"type":"Feature","geometry":{"type":"Point","coordinates":[70.3674,44.808]},"properties":{"name":"BETPAQDALA DESERT","kind":"desert","rank":2}},{"type":"Feature","geometry":{"type":"Point","coordinates":[73.9063,31.1493]},"properties":{"name":"PUNJAB","kind":"desert","rank":2}},{"type":"Feature","geometry":{"type":"Point","coordinates":[51.2721,20.6187]},"properties":{"name":"RUB’ AL KHALI","kind":"desert","rank":2}},{"type":"Feature","geometry":{"type":"Point","coordinates":[7.2601,45.8896]},"properties":{"name":"ALPS","kind":"range/mtn","rank":1}},{"type":"Feature","geometry":{"type":"Point","coordinates":[76.6483,41.3435]},"properties":{"name":"TIAN SHAN","kind":"range/mtn","rank":1}},{"type":"Feature","geometry":{"type":"Point","coordinates":[58.2029,54.6756]},"properties":{"name":"URAL MOUNTAINS","kind":"range/mtn","rank":1}},{"type":"Feature","geometry":{"type":"Point","coordinates":[44.3344,42.7176]},"properties":{"name":"CAUCASUS MTS.","kind":"range/mtn","rank":1}},{"type":"Feature","geometry":{"type":"Point","coordinates":[78.3158,31.6762]},"properties":{"name":"HIMALAYAS","kind":"range/mtn","rank":1}},{"type":"Feature","geometry":{"type":"Point","coordinates":[66.0954,51.026]},"properties":{"name":"KAZAKH STEPPE","kind":"plain","rank":1}},{"type":"Feature","geometry":{"type":"Point","coordinates":[3.4125,50.7794]},"properties":{"name":"NORTHERN EUROPEAN PLAIN","kind":"plain","rank":1}},{"type":"Feature","geometry":{"type":"Point","coordinates":[21.5203,5.0135]},"properties":{"name":"CONGO BASIN","kind":"basin","rank":1}},{"type":"Feature","geometry":{"type":"Point","coordinates":[10.0886,21.8828]},"properties":{"name":"SAHARA","kind":"desert","rank":1}},{"type":"Feature","geometry":{"type":"Point","coordinates":[-4.4842,39.932]},"properties":{"name":"PENÍNSULA IBÉRICA","kind":"plateau","rank":1}},{"type":"Feature","geometry":{"type":"Point","coordinates":[76.8954,33.8553]},"properties":{"name":"PLATEAU OF TIBET","kind":"plateau","rank":1}}]}