{"type":"FeatureCollection","features":[{"type":"Feature","geometry":{"type":"Point","coordinates":[-16.903,29.0346]},"properties":{"name":"North Atlantic Ocean","rank":6}},{"type":"Feature","geometry":{"type":"Point","coordinates":[54.9965,5.2235]},"properties":{"name":"INDIAN OCEAN","rank":6}},{"type":"Feature","geometry":{"type":"Point","coordinates":[-6.4827,0.0139]},"properties":{"name":"South Atlantic Ocean","rank":6}},{"type":"Feature","geometry":{"type":"Point","coordinates":[33.8038,44.136]},"properties":{"name":"Black Sea","rank":1}},{"type":"Feature","geometry":{"type":"Point","coordinates":[79.9248,10.9826]},"properties":{"name":"Bay of Bengal","rank":1}},{"type":"Feature","geometry":{"type":"Point","coordinates":[61.4292,12.858]},"properties":{"name":"Arabian Sea","rank":1}},{"type":"Feature","geometry":{"type":"Point","coordinates":[50.5065,41.8651]},"properties":{"name":"Caspian Sea","rank":1}},{"type":"Feature","geometry":{"type":"Point","coordinates":[38.4975,20.3418]},"properties":{"name":"Red Sea","rank":1}},{"type":"Feature","geometry":{"type":"Point","coordinates":[51.0675,27.2553]},"properties":{"name":"Persian Gulf","rank":1}},{"type":"Feature","geometry":{"type":"Point","coordinates":[-4.063,45.8656]},"properties":{"name":"Bay of Biscay","rank":2}},{"type":"Feature","geometry":{"type":"Point","coordinates":[3.7192,2.8258]},"properties":{"name":"Gulf of Guinea","rank":2}},{"type":"Feature","geometry":{"type":"Point","coordinates":[17.6947,55.9322]},"properties":{"name":"Baltic Sea","rank":2}},{"type":"Feature","geometry":{"type":"Point","coordinates":[4.1497,54.4476]},"properties":{"name":"North Sea","rank":2}},{"type":"Feature","geometry":{"type":"Point","coordinates":[-5.3042,50.9389]},"properties":{"name":"Bristol Channel","rank":4}},{"type":"Feature","geometry":{"type":"Point","coordinates":[-7.0223,56.2912]},"properties":{"name":"Inner Seas","rank":4}},{"type":"Feature","geometry":{"type":"Point","coordinates":[-5.3508,53.326]},"properties":{"name":"Irish Sea","rank":2}},{"type":"Feature","geometry":{"type":"Point","coordinates":[75.9568,7.0726]},"properties":{"name":"Laccadive Sea","rank":2}},{"type":"Feature","geometry":{"type":"Point","coordinates":[48.1709,12.8778]},"properties":{"name":"Gulf of Aden","rank":3}},{"type":"Feature","geometry":{"type":"Point","coordinates":[58.8515,24.4026]},"properties":{"name":"Gulf of Oman","rank":3}},{"type":"Feature","geometry":{"type":"Point","coordinates":[11.815,40.8983]},"properties":{"name":"Tyrrhenian Sea","rank":3}},{"type":"Feature","geometry":{"type":"Point","coordinates":[36.7896,46.2733]},"properties":{"name":"Sea of Azov","rank":5}},{"type":"Feature","geometry":{"type":"Point","coordinates":[-2.9879,49.8023]},"properties":{"name":"English Channel","rank":3}},{"type":"Feature","geometry":{"type":"Point","coordinates":[3.8006,42.7144]},"properties":{"name":"Golfe du Lion","rank":4}},{"type":"Feature","geometry":{"type":"Point","coordinates":[15.9585,42.7435]},"properties":{"name":"Adriatic Sea","rank":3}},{"type":"Feature","geometry":{"type":"Point","coordinates":[18.8194,38.4906]},"properties":{"name":"Ionian Sea","rank":4}},{"type":"Feature","geometry":{"type":"Point","coordinates":[-5.8264,35.8011]},"properties":{"name":"Strait of Gibraltar","rank":4}},{"type":"Feature","geometry":{"type":"Point","coordinates":[2.1597,40.2128]},"properties":{"name":"Balearic Sea","rank":4}},{"type":"Feature","geometry":{"type":"Point","coordinates":[25.2789,38.7533]},"properties":{"name":"Aegean Sea","rank":4}},{"type":"Feature","geometry":{"type":"Point","coordinates":[78.7901,8.2421]},"properties":{"name":"Gulf of Mannar","rank":4}},{"type":"Feature","geometry":{"type":"Point","coordinates":[69.5784,22.6658]},"properties":{"name":"Gulf of Kutch","rank":4}},{"type":"Feature","geometry":{"type":"Point","coordinates":[8.7341,57.3556]},"properties":{"name":"Skagerrak","rank":5}},{"type":"Feature","geometry":{"type":"Point","coordinates":[11.3931,56.8651]},"properties":{"name":"Kattegat","rank":5}},{"type":"Feature","geometry":{"type":"Point","coordinates":[72.2692,21.027]},"properties":{"name":"Gulf of Khambhät","rank":5}},{"type":"Feature","geometry":{"type":"Point","coordinates":[79.4841,9.6245]},"properties":{"name":"Palk Strait","rank":7}},{"type":"Feature","geometry":{"type":"Point","coordinates":[10.7337,34.4454]},"properties":{"name":"Gulf of Gabès","rank":5}},{"type":"Feature","geometry":{"type":"Point","coordinates":[58.0942,19.8795]},"properties":{"name":"Gulf of Masira","rank":5}},{"type":"Feature","geometry":{"type":"Point","coordinates":[23.6242,57.4824]},"properties":{"name":"Gulf of Riga","rank":5}},{"type":"Feature","geometry":{"type":"Point","coordinates":[5.1379,53.1384]},"properties":{"name":"Waddenzee","rank":7}},{"type":"Feature","geometry":{"type":"Point","coordinates":[18.4801,31.205]},"properties":{"name":"Gulf of Sidra","rank":5}},{"type":"Feature","geometry":{"type":"Point","coordinates":[24.6813,36.5737]},"properties":{"name":"Sea of Crete","rank":5}},{"type":"Feature","geometry":{"type":"Point","coordinates":[9.0649,43.424]},"properties":{"name":"Ligurian Sea","rank":5}},{"type":"Feature","geometry":{"type":"Point","coordinates":[-3.5919,35.9753]},"properties":{"name":"Alboran Sea","rank":7}},{"type":"Feature","geometry":{"type":"Point","coordinates":[3.3898,5.633]},"properties":{"name":"Bight of Benin","rank":5}},{"type":"Feature","geometry":{"type":"Point","coordinates":[8.3582,3.9331]},"properties":{"name":"Bight of Biafra","rank":5}},{"type":"Feature","geometry":{"type":"Point","coordinates":[29.0488,41.1211]},"properties":{"name":"Bosporus","rank":5}},{"type":"Feature","geometry":{"type":"Point","coordinates":[43.9146,12.6277]},"properties":{"name":"Bab el Mandeb","rank":7}},{"type":"Feature","geometry":{"type":"Point","coordinates":[53.5368,41.3978]},"properties":{"name":"Garabogaz Bay","rank":6}},{"type":"Feature","geometry":{"type":"Point","coordinates":[33.0566,28.5991]},"properties":{"name":"Gulf of Suez","rank":6}},{"type":"Feature","geometry":{"type":"Point","coordinates":[26.4764,40.2294]},"properties":{"name":"Dardanelles","rank":7}},{"type":"Feature","geometry":{"type":"Point","coordinates":[28.3482,40.6977]},"properties":{"name":"Sea of Marmara","rank":6}},{"type":"Feature","geometry":{"type":"Point","coordinates":[34.7732,29.0143]},"properties":{"name":"Gulf of Aqaba","rank":7}},{"type":"Feature","geometry":{"type":"Point","coordinates":[14.1802,53.8383]},"properties":{"name":"Stettiner Haff","rank":8}},{"type":"Feature","geometry":{"type":"Point","coordinates":[21.1031,55.3075]},"properties":{"name":"Kaliningrad","rank":8}},{"type":"Feature","geometry":{"type":"Point","coordinates":[12.774,55.6893]},"properties":{"name":"Øresund","rank":7}},{"type":"Feature","geometry":{"type":"Point","coordinates":[11.7386,54.3742]},"properties":{"name":"Mecklenburger Bucht","rank":7}},{"type":"Feature","geometry":{"type":"Point","coordinates":[3.9508,37.3195]},"properties":{"name":"Mediterranean Sea","rank":1}}]}